[{"OBJECT_NAME":"BB4","OBJECT_ID":"2023-133B","EPOCH":"2026-03-09T21:37:27.149088","MEAN_MOTION":14.03089986,"ECCENTRICITY":0.00081277,"INCLINATION":80.9964,"RA_OF_ASC_NODE":101.1751,"ARG_OF_PERICENTER":265.8023,"MEAN_ANOMALY":94.2214,"EPHEMERIS_TYPE":0,"CLASSIFICATION_TYPE":"U","NORAD_CAT_ID":57757,"ELEMENT_SET_NO":999,"REV_AT_EPOCH":12736,"BSTAR":0.00015013184,"MEAN_MOTION_DOT":2.45e-6,"MEAN_MOTION_DDOT":0},{"OBJECT_NAME":"SL-14 DEB","OBJECT_ID":"1987-068DC","EPOCH":"2026-02-13T07:40:31.873440","MEAN_MOTION":14.03772744,"ECCENTRICITY":0.00105428,"INCLINATION":82.5437,"RA_OF_ASC_NODE":260.128,"ARG_OF_PERICENTER":345.0282,"MEAN_ANOMALY":15.0576,"EPHEMERIS_TYPE":0,"CLASSIFICATION_TYPE":"U","NORAD_CAT_ID":39976,"ELEMENT_SET_NO":999,"REV_AT_EPOCH":11481,"BSTAR":0.00078801718,"MEAN_MOTION_DOT":1.256e-5,"MEAN_MOTION_DDOT":0}]
